1 39084U 13008A   13284.50000000  .00000000  00000-0  00000-0 0    13
2 39084  98.2029 353.7888 0001096 121.5191  20.4365 14.57108475 35239
1 39084U 13008A   16277.50000000  .00000000  00000-0  75613-3 0    13
2 39084  98.2139 345.7809 0001317  93.6684  54.1889 14.57100187193677
